BREEZE-M R/B            
1 38746U 12044C   21363.51917640  .00006835  00000-0  41873-3 0  9995
2 38746  49.6767 283.1520 2376008 180.2161 179.7728 10.56478309345898
BREEZE-M DEB            
1 38884U 12044R   21363.00932699  .00013951  26917-5  38542-3 0  9999
2 38884  50.0073 279.2399 2245870 354.9821   3.1494 10.94868174357856
BREEZE-M DEB            
1 38888U 12044V   21363.53644708  .00043615  44018-5  63083-3 0  9992
2 38888  50.0300 128.8509 1580657 278.0631  64.4499 12.43282579385585
BREEZE-M DEB            
1 38921U 12044BE  21363.56588374  .00128244  97217-5  92285-3 0  9996
2 38921  50.1736  36.0026 0863853 140.3648 226.3782 14.09620723402227
BREEZE-M DEB            
1 38922U 12044BF  21363.04399084  .00017275  31440-5  38798-3 0  9994
2 38922  50.0662 239.4279 2033855 300.7457  40.8457 11.41533487367969
BREEZE-M DEB            
1 38926U 12044BK  21363.27715716  .00049479  64472-5  71729-3 0  9990
2 38926  49.9826 260.9666 1305201  54.8677 316.7621 13.02941362398199
BREEZE-M DEB            
1 38948U 12044CH  21363.54312339  .00064089  61578-5  10022-2 0  9994
2 38948  50.0475 209.4284 1446874 130.7135 242.8763 12.71010049391996
BREEZE-M DEB            
1 38957U 12044CQ  21362.27283939  .00071568  65098-5  92169-3 0  9990
2 38957  49.9967 324.0749 1403832  62.5220 311.1273 12.83028471388525
BREEZE-M DEB            
1 38959U 12044CS  21363.33934671  .00621801  10592-4  11391-2 0  9992
2 38959  49.9193 344.6616 0224626 108.0813 254.4767 15.68593348381564
BREEZE-M DEB            
1 38960U 12044CT  21363.51217092  .00040549  47720-5  83447-3 0  9995
2 38960  50.1135  55.2874 1695665   2.9318 358.0096 12.13860918328480
BREEZE-M DEB            
1 38961U 12044CU  21363.58422904  .00069321  61972-5  10536-2 0  9995
2 38961  50.0562 195.1966 1445080 135.2550 237.4456 12.71772059385757
BREEZE-M DEB            
1 38971U 12044DE  21362.92673560  .00095489  72011-5  12926-2 0  9994
2 38971  50.0533 236.1372 1242558  38.9996 329.4161 13.17300557398188
